NORAD_CAT_ID,OBJECT_NAME,OBJECT_TYPE,EPOCH,MEAN_MOTION,ECCENTRICITY,INCLINATION,RA_OF_ASC_NODE,ARG_OF_PERICENTER,MEAN_ANOMALY,BSTAR,MEAN_MOTION_DOT,MEAN_MOTION_DDOT,TLE_LINE0,TLE_LINE1,TLE_LINE2,SEMIMAJOR_AXIS,PERIOD,APOGEE,PERIGEE,DECAYED
51130.0,STARLINK-3395,PAYLOAD,2023-08-30 08:28:16,15.088446,0.0001328,53.2165,119.6532,92.3547,267.7598,0.00034274,5.172e-05,0.0,0 STARLINK-3395,1 51130U 22005AC  23242.35297015  .00005172  00000-0  34274-3 0  9992,2 51130  53.2165 119.6532 0001328  92.3547 267.7598 15.08844600 89484,6917.866,95.437,540.65,538.813,0.0
51130.0,STARLINK-3395,PAYLOAD,2023-08-31 01:57:30,15.08848316,0.0001346,53.2166,116.3817,91.7385,268.3762,0.00031809,4.779e-05,0.0,0 STARLINK-3395,1 51130U 22005AC  23243.08160865  .00004779  00000-0  31809-3 0  9998,2 51130  53.2166 116.3817 0001346  91.7385 268.3762 15.08848316 89598,6917.855,95.437,540.651,538.789,0.0
51130.0,STARLINK-3395,PAYLOAD,2023-09-01 01:48:18,15.0884316,0.0001333,53.2161,111.9207,88.9501,271.1644,0.00014793,2.067e-05,0.0,0 STARLINK-3395,1 51130U 22005AC  23244.07521083  .00002067  00000-0  14793-3 0  9992,2 51130  53.2161 111.9207 0001333  88.9501 271.1644 15.08843160 90866,6917.871,95.437,540.658,538.814,0.0
51130.0,STARLINK-3395,PAYLOAD,2023-09-01 14:31:23,15.08840252,0.000146,53.2165,109.542,85.3685,274.7474,7.8642e-05,9.64e-06,0.0,0 STARLINK-3395,1 51130U 22005AC  23244.60513255  .00000964  00000-0  78642-4 0  9991,2 51130  53.2165 109.5420 0001460  85.3685 274.7474 15.08840252 89828,6917.88,95.438,540.755,538.735,0.0
51130.0,STARLINK-3395,PAYLOAD,2023-09-01 16:06:46,15.08841074,0.0001372,53.2161,109.2446,87.1118,273.0031,5.3556e-05,5.65e-06,0.0,0 STARLINK-3395,1 51130U 22005AC  23244.67137195  .00000565  00000-0  53556-4 0  9997,2 51130  53.2161 109.2446 0001372  87.1118 273.0031 15.08841074 89837,6917.877,95.437,540.691,538.793,0.0
51130.0,STARLINK-3395,PAYLOAD,2023-09-02 00:03:42,15.08842076,0.0001477,53.2162,107.7574,81.8922,278.2238,0.00030741,4.608e-05,0.0,0 STARLINK-3395,1 51130U 22005AC  23245.00257302  .00004608  00000-0  30741-3 0  9990,2 51130  53.2162 107.7574 0001477  81.8922 278.2238 15.08842076 91004,6917.874,95.437,540.761,538.717,0.0
51130.0,STARLINK-3395,PAYLOAD,2023-09-02 08:00:37,15.08839731,0.0001242,53.2164,106.2712,94.1656,265.9478,1.3931e-05,-6.6e-07,0.0,0 STARLINK-3395,1 51130U 22005AC  23245.33377119 -.00000066  00000-0  13931-4 0  9993,2 51130  53.2164 106.2712 0001242  94.1656 265.9478 15.08839731 89937,6917.881,95.438,540.605,538.887,0.0
51130.0,STARLINK-3395,PAYLOAD,2023-09-02 17:32:57,15.08839315,0.0001344,53.2174,104.4878,90.1234,269.9912,4.2086e-05,3.82e-06,0.0,0 STARLINK-3395,1 51130U 22005AC  23245.73121760  .00000382  00000-0  42086-4 0  9999,2 51130  53.2174 104.4878 0001344  90.1234 269.9912 15.08839315 91110,6917.882,95.438,540.677,538.818,0.0
51130.0,STARLINK-3395,PAYLOAD,2023-09-02 20:43:43,15.08842176,0.0001362,53.2176,103.893,91.4905,268.6243,0.00011558,1.552e-05,0.0,0 STARLINK-3395,1 51130U 22005AC  23245.86369347  .00001552  00000-0  11558-3 0  9997,2 51130  53.2176 103.8930 0001362  91.4905 268.6243 15.08842176 90013,6917.874,95.437,540.681,538.797,0.0
51130.0,STARLINK-3395,PAYLOAD,2023-09-03 07:51:25,15.08841827,0.0001309,53.2167,101.8107,88.8559,271.2583,9.6097e-05,1.242e-05,0.0,0 STARLINK-3395,1 51130U 22005AC  23246.32737431  .00001242  00000-0  96097-4 0  9990,2 51130  53.2167 101.8107 0001309  88.8559 271.2583 15.08841827 90089,6917.875,95.437,540.645,538.834,0.0
51130.0,STARLINK-3395,PAYLOAD,2023-09-03 18:59:07,15.08841761,0.0001291,53.2164,99.7292,88.9944,271.1196,0.00010191,1.334e-05,0.0,0 STARLINK-3395,1 51130U 22005AC  23246.79105452  .00001334  00000-0  10191-3 0  9995,2 51130  53.2164  99.7292 0001291  88.9944 271.1196 15.08841761 91273,6917.875,95.437,540.633,538.847,0.0
51130.0,STARLINK-3395,PAYLOAD,2023-09-04 07:42:12,15.08835288,0.0001381,53.2167,97.3495,91.7116,268.4034,5.7746e-05,6.31e-06,0.0,0 STARLINK-3395,1 51130U 22005AC  23247.32097957  .00000631  00000-0  57746-4 0  9992,2 51130  53.2167  97.3495 0001381  91.7116 268.4034 15.08835288 91354,6917.895,95.438,540.715,538.804,0.0
51130.0,STARLINK-3395,PAYLOAD,2023-09-04 23:36:03,15.08840305,0.0001505,53.2167,94.3766,93.0483,267.0681,7.9666e-05,9.8e-06,0.0,0 STARLINK-3395,1 51130U 22005AC  23247.98337748  .00000980  00000-0  79666-4 0  9991,2 51130  53.2167  94.3766 0001505  93.0483 267.0681 15.08840305 90338,6917.879,95.438,540.786,538.703,0.0
51130.0,STARLINK-3395,PAYLOAD,2023-09-05 20:16:04,15.08836396,0.0001318,53.2171,90.5116,85.5413,274.573,0.00024579,3.626e-05,0.0,0 STARLINK-3395,1 51130U 22005AC  23248.84449660  .00003626  00000-0  24579-3 0  9996,2 51130  53.2171  90.5116 0001318  85.5413 274.5730 15.08836396 91582,6917.891,95.438,540.668,538.845,0.0
51130.0,STARLINK-3395,PAYLOAD,2023-09-05 23:26:50,15.08848461,0.000137,53.2168,89.9159,84.1428,275.972,0.00010377,1.364e-05,0.0,0 STARLINK-3395,1 51130U 22005AC  23248.97697046  .00001364  00000-0  10377-3 0  9991,2 51130  53.2168  89.9159 0001370  84.1428 275.9720 15.08848461 91609,6917.855,95.437,540.667,538.772,0.0
51130.0,STARLINK-3395,PAYLOAD,2023-09-06 20:06:51,15.08840807,0.0001402,53.2179,86.0494,84.6976,275.4176,0.00011461,1.537e-05,0.0,0 STARLINK-3395,1 51130U 22005AC  23249.83809543  .00001537  00000-0  11461-3 0  9991,2 51130  53.2179  86.0494 0001402  84.6976 275.4176 15.08840807 90616,6917.878,95.438,540.713,538.773,0.0
51130.0,STARLINK-3395,PAYLOAD,2023-09-06 23:17:37,15.08844254,0.0001301,53.2173,85.4536,81.6263,278.4876,9.6165e-05,1.243e-05,0.0,0 STARLINK-3395,1 51130U 22005AC  23249.97057321  .00001243  00000-0  96165-4 0  9994,2 51130  53.2173  85.4536 0001301  81.6263 278.4876 15.08844254 91750,6917.867,95.437,540.632,538.832,0.0
51130.0,STARLINK-3395,PAYLOAD,2023-09-07 13:36:06,15.08838944,0.0001232,53.2161,82.7782,95.0245,265.0888,-1.5897e-05,-5.41e-06,0.0,0 STARLINK-3395,1 51130U 22005AC  23250.56673864 -.00000541  00000-0 -15897-4 0  9992,2 51130  53.2161  82.7782 0001232  95.0245 265.0888 15.08838944 90722,6917.884,95.438,540.601,538.896,0.0
51130.0,STARLINK-3395,PAYLOAD,2023-09-08 00:43:47,15.08844611,0.0001544,53.2167,80.6975,82.217,277.8998,2.4478e-05,1.02e-06,0.0,0 STARLINK-3395,1 51130U 22005AC  23251.03041411  .00000102  00000-0  24478-4 0  9998,2 51130  53.2167  80.6975 0001544  82.2170 277.8998 15.08844611 91913,6917.866,95.437,540.799,538.663,0.0
51130.0,STARLINK-3395,PAYLOAD,2023-09-08 05:29:58,15.0883325,0.0002406,53.2159,79.8032,82.6077,277.5189,-1.6425e-05,-5.5e-06,0.0,0 STARLINK-3395,1 51130U 22005AC  23251.22914477 -.00000550  00000-0 -16425-4 0  9992,2 51130  53.2159  79.8032 0002406  82.6077 277.5189 15.08833250 91945,6917.901,95.438,541.43,538.102,0.0
51130.0,STARLINK-3395,PAYLOAD,2023-09-08 21:23:49,15.0883549,0.0001474,53.2185,76.8317,88.1158,272.0003,4.3559e-05,4.05e-06,0.0,0 STARLINK-3395,1 51130U 22005AC  23251.89154180  .00000405  00000-0  43559-4 0  9997,2 51130  53.2185  76.8317 0001474  88.1158 272.0003 15.08835490 90922,6917.894,95.438,540.779,538.739,0.0
51130.0,STARLINK-3395,PAYLOAD,2023-09-09 13:17:40,15.08835715,0.0001316,53.2179,73.8579,96.7164,263.3978,9.3145e-05,1.195e-05,0.0,0 STARLINK-3395,1 51130U 22005AC  23252.55394274  .00001195  00000-0  93145-4 0  9994,2 51130  53.2179  73.8579 0001316  96.7164 263.3978 15.08835715 91025,6917.893,95.438,540.669,538.848,0.0
51130.0,STARLINK-3395,PAYLOAD,2023-09-09 19:39:12,15.08842689,0.0001266,53.2181,72.6685,93.6441,266.4696,0.00013722,1.897e-05,0.0,0 STARLINK-3395,1 51130U 22005AC  23252.81889874  .00001897  00000-0  13722-3 0  9999,2 51130  53.2181  72.6685 0001266  93.6441 266.4696 15.08842689 92188,6917.872,95.437,540.613,538.861,0.0
51130.0,STARLINK-3395,PAYLOAD,2023-09-10 13:08:27,15.08839576,0.000129,53.2174,69.3978,88.1837,271.9303,0.00018214,2.612e-05,0.0,0 STARLINK-3395,1 51130U 22005AC  23253.54754209  .00002612  00000-0  18214-3 0  9990,2 51130  53.2174  69.3978 0001290  88.1837 271.9303 15.08839576 91178,6917.882,95.438,540.639,538.854,0.0
51130.0,STARLINK-3395,PAYLOAD,2023-09-11 05:02:19,15.08839558,0.00012,53.2171,66.4243,90.4181,269.6948,0.00010986,1.461e-05,0.0,0 STARLINK-3395,1 51130U 22005AC  23254.20994289  .00001461  00000-0  10986-3 0  9997,2 51130  53.2171  66.4243 0001200  90.4181 269.6948 15.08839558 92391,6917.882,95.438,540.577,538.917,0.0
51130.0,STARLINK-3395,PAYLOAD,2023-09-12 11:14:38,15.08839917,0.0001037,53.2181,60.7739,84.3356,275.7754,0.00017061,2.429e-05,0.0,0 STARLINK-3395,1 51130U 22005AC  23255.46850259  .00002429  00000-0  17061-3 0  9990,2 51130  53.2181  60.7739 0001037  84.3356 275.7754 15.08839917 92586,6917.881,95.438,540.463,539.028,0.0
51130.0,STARLINK-3395,PAYLOAD,2023-09-12 17:36:10,15.08849966,0.0001275,53.2186,59.5845,86.4078,273.706,0.00010283,1.349e-05,0.0,0 STARLINK-3395,1 51130U 22005AC  23255.73345619  .00001349  00000-0  10283-3 0  9998,2 51130  53.2186  59.5845 0001275  86.4078 273.7060 15.08849966 92621,6917.85,95.437,540.597,538.833,0.0
51130.0,STARLINK-3395,PAYLOAD,2023-09-13 11:05:25,15.08844107,0.0001232,53.2175,56.3129,85.426,274.6872,0.00015247,2.14e-05,0.0,0 STARLINK-3395,1 51130U 22005AC  23256.46209871  .00002140  00000-0  15247-3 0  9993,2 51130  53.2175  56.3129 0001232  85.4260 274.6872 15.08844107 91615,6917.868,95.437,540.585,538.881,0.0
51130.0,STARLINK-3395,PAYLOAD,2023-09-13 17:26:57,15.08848254,0.0001323,53.2178,55.1226,88.3916,271.7228,0.00016581,2.353e-05,0.0,0 STARLINK-3395,1 51130U 22005AC  23256.72705565  .00002353  00000-0  16581-3 0  9991,2 51130  53.2178  55.1226 0001323  88.3916 271.7228 15.08848254 92772,6917.855,95.437,540.635,538.805,0.0
51130.0,STARLINK-3395,PAYLOAD,2023-09-14 10:56:13,15.08832005,0.0001276,53.2178,51.8534,86.4798,273.634,-6.9073e-05,-1.387e-05,0.0,0 STARLINK-3395,1 51130U 22005AC  23257.45570614 -.00001387  00000-0 -69073-4 0  9990,2 51130  53.2178  51.8534 0001276  86.4798 273.6340 15.08832005 92886,6917.905,95.438,540.653,538.887,0.0
